[
  {
    "OBJECT_NAME": "STARLINK-4511",
    "OBJECT_ID": "22101A",
    "EPOCH": "2025-11-11T08:00:03.000384",
    "MEAN_MOTION": 15.80913889,
    "ECCENTRICITY": 0.0007832,
    "INCLINATION": 53.1975,
    "RA_OF_ASC_NODE": 182.8676,
    "ARG_OF_PERICENTER": 195.2708,
    "MEAN_ANOMALY": 293.4291,
    "EPHEMERIS_TYPE": 0,
    "CLASSIFICATION_TYPE": "U",
    "NORAD_CAT_ID": 53527,
    "ELEMENT_SET_NO": 999,
    "REV_AT_EPOCH": 597,
    "BSTAR": 0.0010297000000000001,
    "MEAN_MOTION_DOT": 0.00208225,
    "MEAN_MOTION_DDOT": 0.0,
    "TLE_LINE1": "1 53527U 22101A   25315.33336806  .00208225  00000+0  10297-2 0  9995",
    "TLE_LINE2": "2 53527  53.1975 182.8676 0007832 195.2708 293.4291 15.80913889  5977",
    "COMMENT": "Grouped by shell and plane from TLE"
  },
  {
    "OBJECT_NAME": "STARLINK-11156 [DTC]",
    "OBJECT_ID": "24164G",
    "EPOCH": "2025-11-09T23:50:55.375872",
    "MEAN_MOTION": 15.6972113,
    "ECCENTRICITY": 0.0001791,
    "INCLINATION": 53.1591,
    "RA_OF_ASC_NODE": 181.0099,
    "ARG_OF_PERICENTER": 63.5336,
    "MEAN_ANOMALY": 296.5866,
    "EPHEMERIS_TYPE": 0,
    "CLASSIFICATION_TYPE": "U",
    "NORAD_CAT_ID": 61056,
    "ELEMENT_SET_NO": 999,
    "REV_AT_EPOCH": 6662,
    "BSTAR": 0.0,
    "MEAN_MOTION_DOT": -4.498e-05,
    "MEAN_MOTION_DDOT": 0.0,
    "TLE_LINE1": "1 61056U 24164G   25313.99369648 -.00004498  00000+0 -32262-4 0  9998",
    "TLE_LINE2": "2 61056  53.1591 181.0099 0001791  63.5336 296.5866 15.69721130 66623",
    "COMMENT": "Grouped by shell and plane from TLE"
  }
]